NORAD_CAT_ID,OBJECT_NAME,OBJECT_TYPE,EPOCH,MEAN_MOTION,ECCENTRICITY,INCLINATION,RA_OF_ASC_NODE,ARG_OF_PERICENTER,MEAN_ANOMALY,BSTAR,MEAN_MOTION_DOT,MEAN_MOTION_DDOT,TLE_LINE0,TLE_LINE1,TLE_LINE2,SEMIMAJOR_AXIS,PERIOD,APOGEE,PERIGEE,DECAYED
49138.0,STARLINK-3058,PAYLOAD,2024-08-17 04:25:54,14.98339707,0.0003432,70.0004,290.3856,270.8922,89.1844,0.00020542,2.359e-05,0.0,0 STARLINK-3058,1 49138U 21082J   24230.18465798  .00002359  00000-0  20542-3 0  9992,2 49138  70.0004 290.3856 0003432 270.8922  89.1844 14.98339707160678,6950.163,96.106,574.413,569.643,0.0
49138.0,STARLINK-3058,PAYLOAD,2024-08-17 07:38:10,14.98340327,0.0003317,70.0009,290.049,271.0202,89.0577,0.00017557,2.003e-05,0.0,0 STARLINK-3058,1 49138U 21082J   24230.31817697  .00002003  00000-0  17557-3 0  9994,2 49138  70.0009 290.0490 0003317 271.0202  89.0577 14.98340327160694,6950.161,96.106,574.331,569.721,0.0
49138.0,STARLINK-3058,PAYLOAD,2024-08-18 04:27:54,14.98340966,0.0003336,70.0002,287.8602,271.4016,88.6761,0.00021323,2.453e-05,0.0,0 STARLINK-3058,1 49138U 21082J   24231.18605231  .00002453  00000-0  21323-3 0  9994,2 49138  70.0002 287.8602 0003336 271.4016  88.6761 14.98340966160828,6950.159,96.106,574.343,569.705,0.0
49138.0,STARLINK-3058,PAYLOAD,2024-08-18 06:04:03,14.98339619,0.0003357,70.0001,287.692,272.1984,87.8791,0.0001751,1.997e-05,0.0,0 STARLINK-3058,1 49138U 21082J   24231.25281253  .00001997  00000-0  17510-3 0  9991,2 49138  70.0001 287.6920 0003357 272.1984  87.8791 14.98339619160831,6950.163,96.106,574.361,569.695,0.0
49138.0,STARLINK-3058,PAYLOAD,2024-08-18 14:04:43,14.98339712,0.0003304,70.0001,286.8505,271.1397,88.9384,0.00013383,1.505e-05,0.0,0 STARLINK-3058,1 49138U 21082J   24231.58661019  .00001505  00000-0  13383-3 0  9998,2 49138  70.0001 286.8505 0003304 271.1397  88.9384 14.98339712160889,6950.163,96.106,574.324,569.732,0.0
49138.0,STARLINK-3058,PAYLOAD,2024-08-19 04:29:56,14.98330435,0.000279,69.9997,285.3356,264.1314,95.9527,-1.4596e-05,-2.67e-06,0.0,0 STARLINK-3058,1 49138U 21082J   24232.18745749 -.00000267  00000-0 -14596-4 0  9992,2 49138  69.9997 285.3356 0002790 264.1314  95.9527 14.98330435160977,6950.192,96.107,573.996,570.117,0.0
49138.0,STARLINK-3058,PAYLOAD,2024-08-19 09:18:20,14.98328696,0.0002844,69.9997,284.8307,265.4302,94.6532,-4.8448e-05,-6.71e-06,0.0,0 STARLINK-3058,1 49138U 21082J   24232.38773854 -.00000671  00000-0 -48448-4 0  9994,2 49138  69.9997 284.8307 0002844 265.4302  94.6532 14.98328696161001,6950.197,96.107,574.039,570.085,0.0
49138.0,STARLINK-3058,PAYLOAD,2024-08-20 04:31:56,14.98333437,0.0003122,69.9988,282.8102,270.3576,89.7225,6.1193e-05,6.37e-06,0.0,0 STARLINK-3058,1 49138U 21082J   24233.18885291  .00000637  00000-0  61193-4 0  9994,2 49138  69.9988 282.8102 0003122 270.3576  89.7225 14.98333437161126,6950.182,96.107,574.217,569.877,0.0
49138.0,STARLINK-3058,PAYLOAD,2024-08-20 12:32:37,14.98333725,0.0003123,69.9988,281.9686,270.1192,89.961,5.8867e-05,6.09e-06,0.0,0 STARLINK-3058,1 49138U 21082J   24233.52265217  .00000609  00000-0  58867-4 0  9995,2 49138  69.9988 281.9686 0003123 270.1192  89.9610 14.98333725161171,6950.181,96.107,574.217,569.876,0.0
49138.0,STARLINK-3058,PAYLOAD,2024-08-21 04:33:57,14.983302,0.0003236,69.9983,280.2849,270.3322,89.7466,0.00013837,1.558e-05,0.0,0 STARLINK-3058,1 49138U 21082J   24234.19025230  .00001558  00000-0  13837-3 0  9999,2 49138  69.9983 280.2849 0003236 270.3322  89.7466 14.98330200161274,6950.192,96.107,574.306,569.808,0.0
49138.0,STARLINK-3058,PAYLOAD,2024-08-21 12:34:38,14.98332107,0.0003231,69.9983,279.4433,270.1444,89.9345,0.00015302,1.733e-05,0.0,0 STARLINK-3058,1 49138U 21082J   24234.52405137  .00001733  00000-0  15302-3 0  9998,2 49138  69.9983 279.4433 0003231 270.1444  89.9345 14.98332107161323,6950.186,96.107,574.297,569.806,0.0
49138.0,STARLINK-3058,PAYLOAD,2024-08-21 20:35:18,14.98331347,0.0003232,69.9983,278.6017,270.5524,89.5265,9.336e-05,1.021e-05,0.0,0 STARLINK-3058,1 49138U 21082J   24234.85785298  .00001021  00000-0  93360-4 0  9994,2 49138  69.9983 278.6017 0003232 270.5524  89.5265 14.98331347161373,6950.189,96.107,574.3,569.807,0.0
